{
  "name": "IRIDIUM-33-DEBRIS",
  "date": "2020-03-19 13:36:04 CET",
  "tles": [{
    "IRIDIUM 33 DEB-101": [
      "1 34518U 97051HK  20077.51222060  .00003206  00000-0  43235-3 0  9998",
      "2 34518  86.3921 179.3350 0021746 240.1144 119.7916 14.78681400586435"
    ],
    "IRIDIUM 33 DEB-102": [
      "1 34520U 97051HM  20077.53414139  .00005183  00000-0  60808-3 0  9994",
      "2 34520  86.3634 164.8865 0018976 146.3009 213.9426 14.84648317586628"
    ],
    "IRIDIUM 33 DEB-103": [
      "1 34521U 97051HN  20079.09396969  .00000470  00000-0  13346-3 0  9997",
      "2 34521  86.3913 210.1405 0009067  73.4034 286.8162 14.43364174581591"
    ],
    "IRIDIUM 33 DEB-104": [
      "1 34522U 97051HP  20078.12617292  .00002995  00000-0  60887-3 0  9992",
      "2 34522  86.3707 208.0339 0040056 141.1142 273.5581 14.60296332580902"
    ],
    "IRIDIUM 33 DEB-105": [
      "1 34524U 97051HR  20078.03835669  .00000889  00000-0  21676-3 0  9997",
      "2 34524  86.3493 190.6089 0039657 101.1591 259.4077 14.51095845581712"
    ],
    "IRIDIUM 33 DEB-106": [
      "1 34525U 97051HS  20078.64327365  .00000210  00000-0  64147-4 0  9993",
      "2 34525  86.3796 214.4733 0006656 122.1458 249.7398 14.37131339580145"
    ],
    "IRIDIUM 33 DEB-107": [
      "1 34526U 97051HT  20078.52799659  .00003638  00000-0  54821-3 0  9994",
      "2 34526  86.3438 165.1609 0018288 212.4444 147.5651 14.74038390585501"
    ],
    "IRIDIUM 33 DEB-108": [
      "1 34529U 97051HW  20077.31828020  .00000133  00000-0  37459-4 0  9994",
      "2 34529  86.3709 205.7256 0005481 236.2514 123.8162 14.37882954579988"
    ],
    "IRIDIUM 33 DEB-109": [
      "1 34532U 97051HZ  20079.06205617  .00003621  00000-0  64379-3 0  9998",
      "2 34532  86.3409 189.9692 0037539  46.5099 313.9225 14.66433853582084"
    ],
    "IRIDIUM 33 DEB-110": [
      "1 34535U 97051JC  20077.71137736  .00002990  00000-0  39476-3 0  9995",
      "2 34535  86.3328 136.8863 0024648 114.4650 245.9146 14.79494458588751"
    ],
    "IRIDIUM 33 DEB-111": [
      "1 34538U 97051JF  20077.32348642  .00000283  00000-0  98782-4 0  9994",
      "2 34538  86.2866 191.0247 0040371 316.5788 109.1675 14.31290228576973"
    ],
    "IRIDIUM 33 DEB-112": [
      "1 34540U 97051JH  20078.24021762  .00000351  00000-0  80208-4 0  9990",
      "2 34540  86.3264 157.3886 0029363  77.7997 335.2896 14.52501590585190"
    ],
    "IRIDIUM 33 DEB-113": [
      "1 34643U 97051JU  20078.56213209  .00001223  00000-0  28658-3 0  9997",
      "2 34643  86.3876 204.3578 0035268  77.6880 282.8271 14.53390633579737"
    ],
    "IRIDIUM 33 DEB-114": [
      "1 34648U 97051JZ  20078.56142357  .00000553  00000-0  38324-3 0  9993",
      "2 34648  86.4159  19.6959 0222658 222.7473 135.6193 13.86194474558330"
    ],
    "IRIDIUM 33 DEB-115": [
      "1 34651U 97051KC  20078.51547387  .00000565  00000-0  30948-3 0  9991",
      "2 34651  86.2896 286.5934 0188017 276.7370  81.2444 14.01879015564075"
    ],
    "IRIDIUM 33 DEB-116": [
      "1 34652U 97051KD  20077.53828789  .00000404  00000-0  10510-3 0  9996",
      "2 34652  86.3426 175.7314 0040066 115.5739 255.8722 14.46646796582386"
    ],
    "IRIDIUM 33 DEB-117": [
      "1 34690U 97051KM  20079.14384441  .00000261  00000-0  72115-4 0  9990",
      "2 34690  86.3895 213.3701 0009780 140.6971  33.5283 14.42780763578334"
    ],
    "IRIDIUM 33 DEB-118": [
      "1 34693U 97051KQ  20078.00584814  .00000687  00000-0  15592-3 0  9990",
      "2 34693  86.3434 165.1551 0026403  43.5721  83.4764 14.54368254582320"
    ],
    "IRIDIUM 33 DEB-119": [
      "1 34696U 97051KT  20078.43269934  .00000967  00000-0  44996-3 0  9994",
      "2 34696  86.2109 219.8772 0142081  72.6390 352.2733 14.14335815568419"
    ],
    "IRIDIUM 33 DEB-120": [
      "1 34702U 97051KZ  20078.41410613  .00000796  00000-0  15761-3 0  9990",
      "2 34702  86.3088 134.8326 0038500 291.8794  67.8324 14.60551911586680"
    ],
    "IRIDIUM 33 DEB-121": [
      "1 34705U 97051LC  20078.19258580  .00002969  00000-0  47964-3 0  9995",
      "2 34705  86.4639 240.3582 0078936 330.0377  29.6331 14.68960326583024"
    ],
    "IRIDIUM 33 DEB-122": [
      "1 34706U 97051LD  20078.32847612  .00003058  00000-0  28989-3 0  9997",
      "2 34706  86.3154 106.9414 0036862 107.7431 313.8015 14.92695104590895"
    ],
    "IRIDIUM 33 DEB-123": [
      "1 34764U 97051LH  20078.47083810  .00004303  00000-0  48470-3 0  9990",
      "2 34764  86.3604 152.0901 0005704  89.5307 270.6571 14.86398876587030"
    ],
    "IRIDIUM 33 DEB-124": [
      "1 34765U 97051LJ  20078.58983809  .00000221  00000-0  71296-4 0  9998",
      "2 34765  86.3463 205.2486 0016539 228.9038 143.0648 14.34616277576162"
    ],
    "IRIDIUM 33 DEB-125": [
      "1 34773U 97051LS  20079.13366825  .00001242  00000-0  29520-3 0  9998",
      "2 34773  86.4148 214.6977 0014937 339.4535  20.6068 14.53083581584163"
    ],
    "IRIDIUM 33 DEB-126": [
      "1 34774U 97051LT  20078.62791897 -.00000146  00000-0 -35825-4 0  9993",
      "2 34774  86.4280 211.1697 0020369 230.2299 259.2548 14.59009257585453"
    ],
    "IRIDIUM 33 DEB-127": [
      "1 34775U 97051LU  20079.10673817  .00001345  00000-0  38943-3 0  9992",
      "2 34775  86.3820 217.0574 0031410 141.6512 342.6438 14.43509704579266"
    ],
    "IRIDIUM 33 DEB-128": [
      "1 34825U 97051LZ  20077.29766347  .00001264  00000-0  29487-3 0  9990",
      "2 34825  86.3774 196.3050 0010714  13.4733  16.1381 14.54012055579230"
    ],
    "IRIDIUM 33 DEB-129": [
      "1 34827U 97051MB  20078.24139059  .00002119  00000-0  26659-3 0  9990",
      "2 34827  86.3831 168.1548 0020932 293.3230  95.8493 14.81431876584497"
    ],
    "IRIDIUM 33 DEB-130": [
      "1 34833U 97051MH  20077.38933847  .00000419  00000-0  12608-3 0  9998",
      "2 34833  86.4006 220.8529 0023176 193.6494 224.7506 14.40165121574759"
    ],
    "IRIDIUM 33 DEB-131": [
      "1 34868U 97051MN  20078.83735543  .00001882  00000-0  40260-3 0  9990",
      "2 34868  86.5364 292.0016 0120252 171.3894 188.9416 14.53756229576029"
    ],
    "IRIDIUM 33 DEB-132": [
      "1 34869U 97051MP  20078.83707861  .00001050  00000-0  31533-3 0  9993",
      "2 34869  86.4554 275.9617 0045374 311.7507  47.9816 14.41272787570918"
    ],
    "IRIDIUM 33 DEB-133": [
      "1 34870U 97051MQ  20077.50506250  .00000530  00000-0  13033-3 0  9994",
      "2 34870  86.3256 162.9645 0033161  86.9534 284.5492 14.50065582585048"
    ],
    "IRIDIUM 33 DEB-134": [
      "1 34889U 97051MR  20078.25180127  .00002003  00000-0  37103-3 0  9999",
      "2 34889  86.3726 180.3066 0009461 215.9833 144.0743 14.64821428582188"
    ],
    "IRIDIUM 33 DEB-135": [
      "1 34890U 97051MS  20078.60642871  .00002744  00000-0  70438-3 0  9999",
      "2 34890  86.3070 197.9063 0074685 236.6915 122.7122 14.48271582575362"
    ],
    "IRIDIUM 33 DEB-136": [
      "1 34896U 97051MY  20078.58201455  .00000403  00000-0  98557-4 0  9994",
      "2 34896  86.3405 167.0810 0038815  76.5928 349.6373 14.49540810578756"
    ],
    "IRIDIUM 33 DEB-137": [
      "1 34898U 97051NA  20078.13766296  .00001024  00000-0  17631-3 0  9999",
      "2 34898  86.3329 138.4798 0020320 236.4156 123.5119 14.67456607582585"
    ],
    "IRIDIUM 33 DEB-138": [
      "1 34899U 97051NB  20078.05456340  .00005829  00000-0  76350-3 0  9997",
      "2 34899  86.4057 189.3494 0024204 223.4494 264.0033 14.80010550578465"
    ],
    "IRIDIUM 33 DEB-139": [
      "1 34926U 97051NF  20077.64191499 -.00000465  00000-0 -23193-3 0  9993",
      "2 34926  86.1598 207.3405 0176577 144.3957 229.4014 14.11375292567128"
    ],
    "IRIDIUM 33 DEB-140": [
      "1 34928U 97051NH  20077.03881750  .00000679  00000-0  14077-3 0  9990",
      "2 34928  86.4083 185.5748 0030981   9.4692 350.7094 14.58429362580696"
    ],
    "IRIDIUM 33 DEB-141": [
      "1 34983U 97051NP  20074.06150440  .00003382  00000-0  56668-3 0  9992",
      "2 34983  86.3617 189.4121 0029914 328.0363  31.9037 14.69206527575839"
    ],
    "IRIDIUM 33 DEB-142": [
      "1 34985U 97051NR  20077.68829955  .00000340  00000-0  11356-3 0  9995",
      "2 34985  86.3752 222.6406 0022115 247.4778 173.5656 14.34410534571065"
    ],
    "IRIDIUM 33 DEB-143": [
      "1 34986U 97051NS  20078.31428039  .00001462  00000-0  35035-3 0  9991",
      "2 34986  86.3880 210.4971 0028065  86.8059 273.6358 14.52631179573644"
    ],
    "IRIDIUM 33 DEB-144": [
      "1 34987U 97051NT  20077.18065304  .00001950  00000-0  25064-3 0  9991",
      "2 34987  86.3370 133.6461 0007686 176.5195 183.6081 14.80626464589151"
    ],
    "IRIDIUM 33 DEB-145": [
      "1 35049U 97051NV  20078.57927073  .00000823  00000-0  16473-3 0  9997",
      "2 35049  86.3781 178.9654 0028671 122.5104 237.8883 14.60329721576681"
    ],
    "IRIDIUM 33 DEB-146": [
      "1 35050U 97051NW  20078.42886045  .00001953  00000-0  24308-3 0  9997",
      "2 35050  86.3054 129.1917 0027438 172.8810 187.2807 14.81702985579652"
    ],
    "IRIDIUM 33 DEB-147": [
      "1 35051U 97051NX  20077.60392487  .00000317  00000-0  97806-4 0  9996",
      "2 35051  86.3331 191.9641 0010829 147.0560 213.1315 14.38143910568890"
    ],
    "IRIDIUM 33 DEB-148": [
      "1 35052U 97051NY  20079.03225817  .00000111  00000-0  31595-4 0  9993",
      "2 35052  86.3379 195.1215 0014046  96.0319 264.2478 14.35627784574444"
    ],
    "IRIDIUM 33 DEB-149": [
      "1 35054U 97051PA  20077.49273425  .00004958  00000-0  65108-3 0  9990",
      "2 35054  86.3421 155.6433 0019746 143.4061 216.8514 14.79936689581054"
    ],
    "IRIDIUM 33 DEB-150": [
      "1 35077U 97051PC  20077.34517637  .00012356  00000-0  82968-3 0  9999",
      "2 35077  86.2743 100.1173 0036327  41.6152 318.7837 15.06142720581095"
    ],
    "IRIDIUM 33 DEB-151": [
      "1 35080U 97051PF  20078.70768619  .00001706  00000-0  75759-3 0  9999",
      "2 35080  86.2389 242.3488 0182475 118.9880 242.9732 14.13941867561754"
    ]
  }]
}
